NORAD_CAT_ID,OBJECT_NAME,OBJECT_TYPE,EPOCH,MEAN_MOTION,ECCENTRICITY,INCLINATION,RA_OF_ASC_NODE,ARG_OF_PERICENTER,MEAN_ANOMALY,BSTAR,MEAN_MOTION_DOT,MEAN_MOTION_DDOT,TLE_LINE0,TLE_LINE1,TLE_LINE2,SEMIMAJOR_AXIS,PERIOD,APOGEE,PERIGEE,DECAYED
51749.0,STARLINK-3451,PAYLOAD,2024-03-13 22:39:49,15.08836486,0.0001248,53.2172,337.2985,106.3669,253.7461,7.6443e-05,9.29e-06,0.0,0 STARLINK-3451,1 51749U 22016AM  24073.94432644  .00000929  00000-0  76443-4 0  9997,2 51749  53.2172 337.2985 0001248 106.3669 253.7461 15.08836486113991,6917.891,95.438,540.619,538.893,0.0
51749.0,STARLINK-3451,PAYLOAD,2024-03-14 03:25:58,15.08845373,0.0001342,53.2173,336.4086,101.3299,258.7844,0.00015692,2.211e-05,0.0,0 STARLINK-3451,1 51749U 22016AM  24074.14304292  .00002211  00000-0  15692-3 0  9991,2 51749  53.2173 336.4086 0001342 101.3299 258.7844 15.08845373114024,6917.864,95.437,540.657,538.801,0.0
51749.0,STARLINK-3451,PAYLOAD,2024-03-14 20:55:14,15.08820878,0.0001475,53.2161,333.1348,112.4761,247.6388,0.0005151,7.915e-05,0.0,0 STARLINK-3451,1 51749U 22016AM  24074.87169436  .00007915  00000-0  51510-3 0  9995,2 51749  53.2161 333.1348 0001475 112.4761 247.6388 15.08820878115248,6917.939,95.439,540.824,538.783,0.0
51749.0,STARLINK-3451,PAYLOAD,2024-03-14 22:30:37,15.08829895,0.0001499,53.2163,332.8375,115.0574,245.0574,0.00028205,4.202e-05,0.0,0 STARLINK-3451,1 51749U 22016AM  24074.93793075  .00004202  00000-0  28205-3 0  9995,2 51749  53.2163 332.8375 0001499 115.0574 245.0574 15.08829895114148,6917.911,95.438,540.813,538.739,0.0
51749.0,STARLINK-3451,PAYLOAD,2024-03-15 17:35:14,15.08833982,0.0001215,53.2162,329.2692,110.8108,249.3014,0.00011295,1.51e-05,0.0,0 STARLINK-3451,1 51749U 22016AM  24075.73281029  .00001510  00000-0  11295-3 0  9995,2 51749  53.2162 329.2692 0001215 110.8108 249.3014 15.08833982115375,6917.899,95.438,540.604,538.923,0.0
51749.0,STARLINK-3451,PAYLOAD,2024-03-15 22:21:24,15.08835655,0.0001206,53.2161,328.3772,107.6354,252.477,0.00014219,1.976e-05,0.0,0 STARLINK-3451,1 51749U 22016AM  24075.93153000  .00001976  00000-0  14219-3 0  9999,2 51749  53.2161 328.3772 0001206 107.6354 252.4770 15.08835655114293,6917.894,95.438,540.593,538.924,0.0
51749.0,STARLINK-3451,PAYLOAD,2024-03-16 20:36:48,15.08834868,0.0001167,53.2176,324.2214,96.8124,263.3001,0.00010034,1.309e-05,0.0,0 STARLINK-3451,1 51749U 22016AM  24076.85889611  .00001309  00000-0  10034-3 0  9996,2 51749  53.2176 324.2214 0001167  96.8124 263.3001 15.08834868115547,6917.896,95.438,540.568,538.954,0.0
51749.0,STARLINK-3451,PAYLOAD,2024-03-16 22:12:11,15.08835457,0.0001169,53.2175,323.924,96.1615,263.951,0.00010171,1.331e-05,0.0,0 STARLINK-3451,1 51749U 22016AM  24076.92513588  .00001331  00000-0  10171-3 0  9998,2 51749  53.2175 323.9240 0001169  96.1615 263.9510 15.08835457114445,6917.894,95.438,540.568,538.951,0.0
51749.0,STARLINK-3451,PAYLOAD,2024-03-17 02:58:21,15.08835999,0.0001214,53.2176,323.0264,94.3066,265.8065,0.00010114,1.322e-05,0.0,0 STARLINK-3451,1 51749U 22016AM  24077.12385537  .00001322  00000-0  10114-3 0  9999,2 51749  53.2176 323.0264 0001214  94.3066 265.8065 15.08835999114474,6917.893,95.438,540.597,538.918,0.0
51749.0,STARLINK-3451,PAYLOAD,2024-03-17 22:02:58,15.08842412,0.0001301,53.2178,319.4582,85.3546,274.7595,0.00012668,1.729e-05,0.0,0 STARLINK-3451,1 51749U 22016AM  24077.91873219  .00001729  00000-0  12668-3 0  9992,2 51749  53.2178 319.4582 0001301  85.3546 274.7595 15.08842412114596,6917.873,95.437,540.638,538.838,0.0
51749.0,STARLINK-3451,PAYLOAD,2024-03-18 01:13:44,15.08844208,0.0001291,53.2178,318.8637,86.8674,273.2465,0.00013829,1.914e-05,0.0,0 STARLINK-3451,1 51749U 22016AM  24078.05121085  .00001914  00000-0  13829-3 0  9991,2 51749  53.2178 318.8637 0001291  86.8674 273.2465 15.08844208115727,6917.868,95.437,540.626,538.839,0.0
51749.0,STARLINK-3451,PAYLOAD,2024-03-18 21:53:45,15.08841438,0.0001296,53.2176,314.9979,86.6815,273.4326,0.00012302,1.671e-05,0.0,0 STARLINK-3451,1 51749U 22016AM  24078.91233274  .00001671  00000-0  12302-3 0  9995,2 51749  53.2176 314.9979 0001296  86.6815 273.4326 15.08841438114742,6917.876,95.437,540.638,538.844,0.0
51749.0,STARLINK-3451,PAYLOAD,2024-03-19 01:04:31,15.08844503,0.0001307,53.2177,314.403,86.5069,273.6073,0.00014672,2.048e-05,0.0,0 STARLINK-3451,1 51749U 22016AM  24079.04481036  .00002048  00000-0  14672-3 0  9992,2 51749  53.2177 314.4030 0001307  86.5069 273.6073 15.08844503114768,6917.867,95.437,540.636,538.827,0.0
51749.0,STARLINK-3451,PAYLOAD,2024-03-19 20:09:08,15.08854055,0.0001328,53.218,310.8349,85.0038,275.1105,0.00014636,2.043e-05,0.0,0 STARLINK-3451,1 51749U 22016AM  24079.83968219  .00002043  00000-0  14636-3 0  9997,2 51749  53.2180 310.8349 0001328  85.0038 275.1105 15.08854055115990,6917.837,95.437,540.621,538.784,0.0
51749.0,STARLINK-3451,PAYLOAD,2024-03-20 19:59:56,15.08840203,0.0001013,53.2173,306.3772,108.8564,251.2539,-2.5743e-05,-6.97e-06,0.0,0 STARLINK-3451,1 51749U 22016AM  24080.83329146 -.00000697  00000-0 -25743-4 0  9996,2 51749  53.2173 306.3772 0001013 108.8564 251.2539 15.08840203116145,6917.88,95.438,540.446,539.044,0.0
51749.0,STARLINK-3451,PAYLOAD,2024-03-20 21:35:19,15.08837799,0.0001015,53.2168,306.08,114.8734,245.2364,-4.9765e-05,-1.08e-05,0.0,0 STARLINK-3451,1 51749U 22016AM  24080.89953287 -.00001080  00000-0 -49765-4 0  9998,2 51749  53.2168 306.0800 0001015 114.8734 245.2364 15.08837799115049,6917.887,95.438,540.454,539.05,0.0
51749.0,STARLINK-3451,PAYLOAD,2024-03-21 00:46:05,15.08836927,0.0001006,53.2167,305.4854,114.0829,246.0269,-5.9192e-05,-1.23e-05,0.0,0 STARLINK-3451,1 51749U 22016AM  24081.03201354 -.00001230  00000-0 -59192-4 0  9998,2 51749  53.2167 305.4854 0001006 114.0829 246.0269 15.08836927115064,6917.89,95.438,540.451,539.059,0.0
51749.0,STARLINK-3451,PAYLOAD,2024-03-21 21:26:05,15.08893427,0.0001151,53.2173,301.6179,121.4556,238.6548,-0.00068114,-0.00011128,0.0,0 STARLINK-3451,1 51749U 22016AM  24081.89312004 -.00011128  00000-0 -68114-3 0  9997,2 51749  53.2173 301.6179 0001151 121.4556 238.6548 15.08893427116302,6917.717,95.434,540.378,538.786,0.0
51749.0,STARLINK-3451,PAYLOAD,2024-03-22 14:55:21,15.08835574,0.0001186,53.2172,298.3467,101.8015,258.311,0.00019198,2.768e-05,0.0,0 STARLINK-3451,1 51749U 22016AM  24082.62177140  .00002768  00000-0  19198-3 0  9995,2 51749  53.2172 298.3467 0001186 101.8015 258.3110 15.08835574115305,6917.894,95.438,540.579,538.938,0.0
51749.0,STARLINK-3451,PAYLOAD,2024-03-22 21:16:53,15.08837252,0.0001164,53.2159,297.1567,98.8726,261.2398,0.00020315,2.947e-05,0.0,0 STARLINK-3451,1 51749U 22016AM  24082.88673572  .00002947  00000-0  20315-3 0  9995,2 51749  53.2159 297.1567 0001164  98.8726 261.2398 15.08837252116451,6917.889,95.438,540.559,538.949,0.0
51749.0,STARLINK-3451,PAYLOAD,2024-03-23 21:07:40,15.08841624,0.0001134,53.2151,292.6971,93.934,266.1781,3.3149e-05,2.4e-06,0.0,0 STARLINK-3451,1 51749U 22016AM  24083.88033445  .00000240  00000-0  33149-4 0  9999,2 51749  53.2151 292.6971 0001134  93.9340 266.1781 15.08841624115498,6917.875,95.437,540.525,538.956,0.0
51749.0,STARLINK-3451,PAYLOAD,2024-03-24 13:01:32,15.08830067,0.0001996,53.2155,289.7219,81.6931,278.4287,-6.8798e-05,-1.383e-05,0.0,0 STARLINK-3451,1 51749U 22016AM  24084.54274208 -.00001383  00000-0 -68798-4 0  9996,2 51749  53.2155 289.7219 0001996  81.6931 278.4287 15.08830067116701,6917.911,95.438,541.157,538.395,0.0
51749.0,STARLINK-3451,PAYLOAD,2024-03-24 20:58:28,15.08827804,0.0001605,53.2164,288.2382,83.3161,276.8014,8.5005e-05,1.065e-05,0.0,0 STARLINK-3451,1 51749U 22016AM  24084.87394635  .00001065  00000-0  85005-4 0  9994,2 51749  53.2164 288.2382 0001605  83.3161 276.8014 15.08827804115644,6917.918,95.438,540.893,538.672,0.0
51749.0,STARLINK-3451,PAYLOAD,2024-03-25 12:52:19,15.08836883,0.0001317,53.2158,285.263,90.0187,270.0956,0.00010024,1.308e-05,0.0,0 STARLINK-3451,1 51749U 22016AM  24085.53634186  .00001308  00000-0  10024-3 0  9994,2 51749  53.2158 285.2630 0001317  90.0187 270.0956 15.08836883116855,6917.89,95.438,540.666,538.844,0.0
51749.0,STARLINK-3451,PAYLOAD,2024-03-25 20:49:15,15.0884388,0.0001323,53.2158,283.7775,84.4832,275.6311,0.00016278,2.304e-05,0.0,0 STARLINK-3451,1 51749U 22016AM  24085.86753816  .00002304  00000-0  16278-3 0  9996,2 51749  53.2158 283.7775 0001323  84.4832 275.6311 15.08843880115792,6917.869,95.437,540.649,538.818,0.0
51749.0,STARLINK-3451,PAYLOAD,2024-03-26 06:21:33,15.08852723,0.0001361,53.2169,281.9931,84.075,276.0397,0.0002036,2.955e-05,0.0,0 STARLINK-3451,1 51749U 22016AM  24086.26497301  .00002955  00000-0  20360-3 0  9994,2 51749  53.2169 281.9931 0001361  84.0750 276.0397 15.08852723116960,6917.842,95.437,540.648,538.765,0.0
51749.0,STARLINK-3451,PAYLOAD,2024-03-26 19:04:40,15.08828027,0.0001278,53.2167,279.611,90.6407,269.4732,-7.5963e-06,-4.09e-06,0.0,0 STARLINK-3451,1 51749U 22016AM  24086.79490847 -.00000409  00000-0 -75963-5 0  9995,2 51749  53.2167 279.6110 0001278  90.6407 269.4732 15.08828027117049,6917.917,95.438,540.666,538.898,0.0
51749.0,STARLINK-3451,PAYLOAD,2024-03-26 22:15:26,15.0882935,0.0001299,53.2172,279.0154,97.064,263.0499,-1.0088e-05,-4.48e-06,0.0,0 STARLINK-3451,1 51749U 22016AM  24086.92738808 -.00000448  00000-0 -10088-4 0  9991,2 51749  53.2172 279.0154 0001299  97.0640 263.0499 15.08829350115958,6917.913,95.438,540.677,538.879,0.0
51749.0,STARLINK-3451,PAYLOAD,2024-03-27 12:33:54,15.08834077,0.0001157,53.2178,276.3403,97.3604,262.7519,0.00024396,3.596e-05,0.0,0 STARLINK-3451,1 51749U 22016AM  24087.52354770  .00003596  00000-0  24396-3 0  9991,2 51749  53.2178 276.3403 0001157  97.3604 262.7519 15.08834077117152,6917.898,95.438,540.564,538.963,0.0
51749.0,STARLINK-3451,PAYLOAD,2024-03-27 18:55:26,15.08844258,0.0001396,53.2158,275.1524,90.2939,269.8213,0.00026625,3.952e-05,0.0,0 STARLINK-3451,1 51749U 22016AM  24087.78850420  .00003952  00000-0  26625-3 0  9995,2 51749  53.2158 275.1524 0001396  90.2939 269.8213 15.08844258116081,6917.867,95.437,540.698,538.767,0.0
